[{"OBJECT_NAME":"NETSAT-4","OBJECT_ID":"2020-068U","EPOCH":"2026-03-07T13:50:54.884832","MEAN_MOTION":15.40268096,"ECCENTRICITY":0.00048262,"INCLINATION":97.8645,"RA_OF_ASC_NODE":66.92,"ARG_OF_PERICENTER":347.4063,"MEAN_ANOMALY":12.706,"EPHEMERIS_TYPE":0,"CLASSIFICATION_TYPE":"U","NORAD_CAT_ID":46504,"ELEMENT_SET_NO":999,"REV_AT_EPOCH":30011,"BSTAR":0.00066625555,"MEAN_MOTION_DOT":0.00026796,"MEAN_MOTION_DDOT":0},{"OBJECT_NAME":"NETSAT-3","OBJECT_ID":"2020-068V","EPOCH":"2026-03-07T13:34:29.381376","MEAN_MOTION":15.38930477,"ECCENTRICITY":0.00052749,"INCLINATION":97.868,"RA_OF_ASC_NODE":65.2691,"ARG_OF_PERICENTER":6.4576,"MEAN_ANOMALY":353.6735,"EPHEMERIS_TYPE":0,"CLASSIFICATION_TYPE":"U","NORAD_CAT_ID":46505,"ELEMENT_SET_NO":999,"REV_AT_EPOCH":30003,"BSTAR":0.00073138275,"MEAN_MOTION_DOT":0.0002817,"MEAN_MOTION_DDOT":0},{"OBJECT_NAME":"NETSAT-1","OBJECT_ID":"2020-068W","EPOCH":"2026-03-07T12:42:36.701280","MEAN_MOTION":15.31944935,"ECCENTRICITY":0.0006071,"INCLINATION":97.8745,"RA_OF_ASC_NODE":60.6894,"ARG_OF_PERICENTER":25.6684,"MEAN_ANOMALY":334.4857,"EPHEMERIS_TYPE":0,"CLASSIFICATION_TYPE":"U","NORAD_CAT_ID":46506,"ELEMENT_SET_NO":999,"REV_AT_EPOCH":29972,"BSTAR":0.0007138767,"MEAN_MOTION_DOT":0.00021985,"MEAN_MOTION_DDOT":0},{"OBJECT_NAME":"NETSAT-2","OBJECT_ID":"2020-068X","EPOCH":"2026-03-07T12:46:06.744864","MEAN_MOTION":15.41444145,"ECCENTRICITY":0.00048056,"INCLINATION":97.8657,"RA_OF_ASC_NODE":66.4713,"ARG_OF_PERICENTER":28.2953,"MEAN_ANOMALY":331.8552,"EPHEMERIS_TYPE":0,"CLASSIFICATION_TYPE":"U","NORAD_CAT_ID":46507,"ELEMENT_SET_NO":999,"REV_AT_EPOCH":30005,"BSTAR":0.00079967608,"MEAN_MOTION_DOT":0.00033485,"MEAN_MOTION_DDOT":0},{"OBJECT_NAME":"WILDTRACKCUBE-SIMBA","OBJECT_ID":"2021-022K","EPOCH":"2026-03-06T07:01:53.275872","MEAN_MOTION":16.39544551,"ECCENTRICITY":0.0005874,"INCLINATION":97.3721,"RA_OF_ASC_NODE":347.4784,"ARG_OF_PERICENTER":201.7073,"MEAN_ANOMALY":158.3978,"EPHEMERIS_TYPE":0,"CLASSIFICATION_TYPE":"U","NORAD_CAT_ID":47941,"ELEMENT_SET_NO":999,"REV_AT_EPOCH":27530,"BSTAR":0.00074904122,"MEAN_MOTION_DOT":0.0875915,"MEAN_MOTION_DDOT":2.64013e-6},{"OBJECT_NAME":"GREENCUBE (IO-117)","OBJECT_ID":"2022-080E","EPOCH":"2026-03-07T02:04:59.774016","MEAN_MOTION":6.42583094,"ECCENTRICITY":0.00090138,"INCLINATION":70.1628,"RA_OF_ASC_NODE":333.7587,"ARG_OF_PERICENTER":311.8097,"MEAN_ANOMALY":48.1792,"EPHEMERIS_TYPE":0,"CLASSIFICATION_TYPE":"U","NORAD_CAT_ID":53109,"ELEMENT_SET_NO":999,"REV_AT_EPOCH":8550,"BSTAR":0,"MEAN_MOTION_DOT":-3.0e-8,"MEAN_MOTION_DDOT":0},{"OBJECT_NAME":"SITRO-AIS 5 (KATYS)","OBJECT_ID":"2023-091L","EPOCH":"2026-03-07T15:34:07.897728","MEAN_MOTION":15.26996848,"ECCENTRICITY":0.00134053,"INCLINATION":97.5179,"RA_OF_ASC_NODE":129.7067,"ARG_OF_PERICENTER":101.5585,"MEAN_ANOMALY":258.7159,"EPHEMERIS_TYPE":0,"CLASSIFICATION_TYPE":"U","NORAD_CAT_ID":57176,"ELEMENT_SET_NO":999,"REV_AT_EPOCH":14883,"BSTAR":0.00069250706,"MEAN_MOTION_DOT":0.00018348,"MEAN_MOTION_DDOT":0},{"OBJECT_NAME":"SITRO-AIS 6 (CHIRKIN)","OBJECT_ID":"2023-091AC","EPOCH":"2026-03-07T14:43:17.161248","MEAN_MOTION":15.24370049,"ECCENTRICITY":0.00142197,"INCLINATION":97.5185,"RA_OF_ASC_NODE":129.2752,"ARG_OF_PERICENTER":102.1372,"MEAN_ANOMALY":258.1459,"EPHEMERIS_TYPE":0,"CLASSIFICATION_TYPE":"U","NORAD_CAT_ID":57192,"ELEMENT_SET_NO":999,"REV_AT_EPOCH":14880,"BSTAR":0.00044413711,"MEAN_MOTION_DOT":0.0001084,"MEAN_MOTION_DDOT":0},{"OBJECT_NAME":"SITRO-AIS 8 (ANOKHIN)","OBJECT_ID":"2023-091AD","EPOCH":"2026-03-07T15:12:43.991136","MEAN_MOTION":15.29265201,"ECCENTRICITY":0.00126106,"INCLINATION":97.5172,"RA_OF_ASC_NODE":130.9014,"ARG_OF_PERICENTER":99.4769,"MEAN_ANOMALY":260.7897,"EPHEMERIS_TYPE":0,"CLASSIFICATION_TYPE":"U","NORAD_CAT_ID":57193,"ELEMENT_SET_NO":999,"REV_AT_EPOCH":14891,"BSTAR":0.00074164574,"MEAN_MOTION_DOT":0.00021065,"MEAN_MOTION_DDOT":0},{"OBJECT_NAME":"SITRO-AIS 7 (FARTUSHNIY)","OBJECT_ID":"2023-091AE","EPOCH":"2026-03-07T14:20:31.801056","MEAN_MOTION":15.24121548,"ECCENTRICITY":0.0014064,"INCLINATION":97.5185,"RA_OF_ASC_NODE":129.1314,"ARG_OF_PERICENTER":103.0492,"MEAN_ANOMALY":257.2316,"EPHEMERIS_TYPE":0,"CLASSIFICATION_TYPE":"U","NORAD_CAT_ID":57194,"ELEMENT_SET_NO":999,"REV_AT_EPOCH":14879,"BSTAR":0.00039778843,"MEAN_MOTION_DOT":9.627e-5,"MEAN_MOTION_DDOT":0},{"OBJECT_NAME":"SITRO-AIS 10 (BURDAEV)","OBJECT_ID":"2023-091AK","EPOCH":"2026-03-07T14:25:29.097408","MEAN_MOTION":15.34636702,"ECCENTRICITY":0.0008275,"INCLINATION":97.5185,"RA_OF_ASC_NODE":134.9678,"ARG_OF_PERICENTER":81.7806,"MEAN_ANOMALY":278.4375,"EPHEMERIS_TYPE":0,"CLASSIFICATION_TYPE":"U","NORAD_CAT_ID":57199,"ELEMENT_SET_NO":999,"REV_AT_EPOCH":14916,"BSTAR":0.00089648117,"MEAN_MOTION_DOT":0.00030123,"MEAN_MOTION_DDOT":0},{"OBJECT_NAME":"SITRO-AIS 9 (SHCHUKIN)","OBJECT_ID":"2023-091AM","EPOCH":"2026-03-07T14:22:11.344224","MEAN_MOTION":15.34262823,"ECCENTRICITY":0.00084854,"INCLINATION":97.5185,"RA_OF_ASC_NODE":134.7661,"ARG_OF_PERICENTER":81.6365,"MEAN_ANOMALY":278.5839,"EPHEMERIS_TYPE":0,"CLASSIFICATION_TYPE":"U","NORAD_CAT_ID":57201,"ELEMENT_SET_NO":999,"REV_AT_EPOCH":14915,"BSTAR":0.00082449033,"MEAN_MOTION_DOT":0.00027362,"MEAN_MOTION_DDOT":0},{"OBJECT_NAME":"SITRO-AIS 12 (SMIRENNIY)","OBJECT_ID":"2023-091AQ","EPOCH":"2026-03-07T14:34:37.931808","MEAN_MOTION":15.34506119,"ECCENTRICITY":0.00081471,"INCLINATION":97.5195,"RA_OF_ASC_NODE":135.1825,"ARG_OF_PERICENTER":76.7906,"MEAN_ANOMALY":283.4245,"EPHEMERIS_TYPE":0,"CLASSIFICATION_TYPE":"U","NORAD_CAT_ID":57204,"ELEMENT_SET_NO":999,"REV_AT_EPOCH":14917,"BSTAR":0.00084526028,"MEAN_MOTION_DOT":0.00028272,"MEAN_MOTION_DDOT":0},{"OBJECT_NAME":"SITRO-AIS 11 (SHEFFER)","OBJECT_ID":"2023-091AU","EPOCH":"2026-03-07T15:30:34.123392","MEAN_MOTION":15.34851707,"ECCENTRICITY":0.00080309,"INCLINATION":97.5194,"RA_OF_ASC_NODE":135.4111,"ARG_OF_PERICENTER":76.7105,"MEAN_ANOMALY":283.5033,"EPHEMERIS_TYPE":0,"CLASSIFICATION_TYPE":"U","NORAD_CAT_ID":57208,"ELEMENT_SET_NO":999,"REV_AT_EPOCH":14919,"BSTAR":0.00080995843,"MEAN_MOTION_DOT":0.00027382,"MEAN_MOTION_DDOT":0},{"OBJECT_NAME":"SITRO-AIS 25","OBJECT_ID":"2024-039R","EPOCH":"2026-03-07T15:24:08.862336","MEAN_MOTION":14.92608681,"ECCENTRICITY":0.01456101,"INCLINATION":95.3938,"RA_OF_ASC_NODE":165.3428,"ARG_OF_PERICENTER":323.5713,"MEAN_ANOMALY":35.567,"EPHEMERIS_TYPE":0,"CLASSIFICATION_TYPE":"U","NORAD_CAT_ID":59066,"ELEMENT_SET_NO":999,"REV_AT_EPOCH":10957,"BSTAR":0.00038136009,"MEAN_MOTION_DOT":4.791e-5,"MEAN_MOTION_DDOT":0},{"OBJECT_NAME":"SITRO-AIS 26","OBJECT_ID":"2024-039S","EPOCH":"2026-03-07T15:07:04.184256","MEAN_MOTION":14.92424251,"ECCENTRICITY":0.01458368,"INCLINATION":95.3941,"RA_OF_ASC_NODE":165.2521,"ARG_OF_PERICENTER":324.1012,"MEAN_ANOMALY":35.048,"EPHEMERIS_TYPE":0,"CLASSIFICATION_TYPE":"U","NORAD_CAT_ID":59067,"ELEMENT_SET_NO":999,"REV_AT_EPOCH":10956,"BSTAR":0.00046429139,"MEAN_MOTION_DOT":5.816e-5,"MEAN_MOTION_DDOT":0}]
