NETSAT-4                
1 46504U 20068U   26066.57702413  .00026796  00000+0  66626-3 0  9992
2 46504  97.8645  66.9200 0004826 347.4063  12.7060 15.40268096300112
NETSAT-3                
1 46505U 20068V   26066.56561784  .00028170  00000+0  73138-3 0  9990
2 46505  97.8680  65.2691 0005274   6.4576 353.6735 15.38930477300030
NETSAT-1                
1 46506U 20068W   26066.52959145  .00021985  00000+0  71388-3 0  9991
2 46506  97.8745  60.6894 0006071  25.6684 334.4857 15.31944935299728
NETSAT-2                
1 46507U 20068X   26066.53202251  .00033485  00000+0  79968-3 0  9992
2 46507  97.8657  66.4713 0004805  28.2953 331.8552 15.41444145300057
WILDTRACKCUBE-SIMBA     
1 47941U 21022K   26065.29297773  .08759150  26401-5  74904-3 0  9997
2 47941  97.3721 347.4784 0005874 201.7073 158.3978 16.39544551275308
GREENCUBE (IO-117)      
1 53109U 22080E   26066.08680294 -.00000003  00000+0  00000+0 0  9999
2 53109  70.1628 333.7587 0009013 311.8097  48.1792  6.42583094 85502
SITRO-AIS 5 (KATYS)     
1 57176U 23091L   26066.64870252  .00018348  00000+0  69251-3 0  9994
2 57176  97.5179 129.7067 0013405 101.5585 258.7159 15.26996848148835
SITRO-AIS 6 (CHIRKIN)   
1 57192U 23091AC  26066.61339307  .00010840  00000+0  44414-3 0  9993
2 57192  97.5185 129.2752 0014219 102.1372 258.1459 15.24370049148802
SITRO-AIS 8 (ANOKHIN)   
1 57193U 23091AD  26066.63384249  .00021065  00000+0  74165-3 0  9998
2 57193  97.5172 130.9014 0012610  99.4769 260.7897 15.29265201148915
SITRO-AIS 7 (FARTUSHNIY)
1 57194U 23091AE  26066.59759029  .00009627  00000+0  39779-3 0  9998
2 57194  97.5185 129.1314 0014064 103.0492 257.2316 15.24121548148796
SITRO-AIS 10 (BURDAEV)  
1 57199U 23091AK  26066.60103122  .00030123  00000+0  89648-3 0  9997
2 57199  97.5185 134.9678 0008275  81.7806 278.4375 15.34636702149162
SITRO-AIS 9 (SHCHUKIN)  
1 57201U 23091AM  26066.59874241  .00027362  00000+0  82449-3 0  9999
2 57201  97.5185 134.7661 0008485  81.6365 278.5839 15.34262823149152
SITRO-AIS 12 (SMIRENNIY)
1 57204U 23091AQ  26066.60738347  .00028272  00000+0  84526-3 0  9999
2 57204  97.5195 135.1825 0008147  76.7906 283.4245 15.34506119149171
SITRO-AIS 11 (SHEFFER)  
1 57208U 23091AU  26066.64622828  .00027382  00000+0  80996-3 0  9991
2 57208  97.5194 135.4111 0008030  76.7105 283.5033 15.34851707149191
SITRO-AIS 25            
1 59066U 24039R   26066.64176924  .00004791  00000+0  38136-3 0  9997
2 59066  95.3938 165.3428 0145610 323.5713  35.5670 14.92608681109578
SITRO-AIS 26            
1 59067U 24039S   26066.62990954  .00005816  00000+0  46429-3 0  9996
2 59067  95.3941 165.2521 0145836 324.1012  35.0480 14.92424251109567
